0180P         2023 07 12.1311  2.499338  0.353815   94.6056   84.5591   16.8619  20250520  11.0  4.0  180P/NEAT                                                MPEC 2024-F34
0181P         2022 01  8.3057  1.164428  0.699820  336.2932   35.4398   17.4748  20250520  11.5  4.0  181P/Shoemaker-Levy                                      MPC 89012
0182P         2027 06  5.3796  0.991015  0.663924   54.2066   72.4556   16.2310  20250520  18.0  4.0  182P/LONEOS                                              MPEC 2024-UQ8
0183P         2027 09 17.2612  4.224092  0.102635  162.7864    3.5636   18.7297  20250520  12.5  2.0  183P/Korlevic-Juric                                      MPEC 2024-VJ2
0184P         2028 03 23.7951  1.710981  0.549829  186.5619  173.2682    4.5701  20250520  13.5  4.0  184P/Lovas                                               MPEC 2020-W26
0185P         2023 07 12.7989  0.931667  0.699429  181.9196  214.1222   14.0101  20250520  15.0  4.0  185P/Petriew                                             MPEC 2024-F91
0186P         2029 08 25.4744  4.253917  0.123876  268.5311  325.8968   28.6519  20250520   7.5  4.0  186P/Garradd                                             MPEC 2022-X67
0187P         2028 02  3.8040  3.840953  0.156017  131.6030  109.8444   13.6668  20250520   9.0  4.0  187P/LINEAR                                              MPEC 2020-SI8
0188P         2026 04 13.2584  2.546216  0.416715   26.8260  358.9145   10.5247  20250520  11.5  4.0  188P/LINEAR-Mueller                                      MPEC 2023-J29
0189P         2027 09 13.6703  1.203893  0.590527   16.1841  281.6836   20.1192  20250520  19.0  4.0  189P/NEAT                                                MPEC 2022-QD9
0190P         2024 12 24.1498  2.019447  0.522606   50.5462  335.4804    2.1746  20250520  13.0  4.0  190P/Mueller                                             MPC182889
0191P         2028 02 29.6251  2.238547  0.385155  284.2682   98.1792    8.8395  20250520  13.0  4.0  191P/McNaught                                            MPEC 2024-TD8
0192P         2024 05 24.5102  1.463001  0.773412  313.0431   51.5852   24.5806  20250520  15.0  4.0  192P/Shoemaker-Levy                                      MPC182889
0193P         2028 06  1.4404  2.174100  0.392622    8.1181  335.1863   10.6793  20250520  14.0  4.0  193P/LINEAR-NEAT                                         MPEC 2024-R10
0194P         2024 02  4.3147  1.800017  0.563387  128.6149  349.5127   11.8036  20250520  16.0  4.0  194P/LINEAR                                              MPEC 2024-GJ3
0195P         2025 08  5.5540  4.440584  0.311020  250.5918  243.0998   36.4171  20250520   8.5  4.0  195P/Hill                                                MPEC 2025-J92
0196P         2022 10 29.1977  2.178855  0.427550   12.1360   24.1240   19.2953  20250520  13.5  4.0  196P/Tichy                                               MPEC 2024-GJ3
0197P         2022 12  5.7797  1.106027  0.619559  189.9393   66.2100   25.3418  20250520  16.5  2.0  197P/LINEAR                                              MPEC 2023-UR6
0198P         2025 10  7.1131  1.994805  0.444641   69.0494  358.4691    1.3400  20250520  12.5  4.0  198P/ODAS                                                MPEC 2024-VJ2
0199P         2023 08  7.3717  2.910882  0.504436  191.7639   92.3440   24.9392  20250520  10.0  4.0  199P/Shoemaker                                           MPEC 2024-Q20
0200P         2030 08  6.1997  3.312669  0.331201  134.3861  234.8099   12.0952  20250520   9.0  4.0  200P/Larsen                                              MPEC 2022-C56
0201P         2027 07 20.1164  1.216007  0.637517   19.8007   41.5262    5.7372  20250520  14.0  4.0  201P/LONEOS                                              MPC 93588
0202P         2024 05 17.2972  3.069918  0.251093  274.4957  177.3006    2.1418  20250520  13.5  4.0  202P/Scotti                                              MPC182889
0203P         2030 04  8.7800  3.191445  0.316385  154.9328  290.2221    2.9759  20250520  14.5  2.0  203P/Korlevic                                            MPEC 2025-A40
0204P         2022 11 17.2609  1.834085  0.488283  356.7267  108.4734    6.5979  20250520  14.0  4.0  204P/LINEAR-NEAT                                         MPEC 2024-JU4
0205P         2028 09 13.6082  1.533490  0.567191  154.1561  179.6234   15.3004  20250520  13.0  4.0  205P/Giacobini                                           MPEC 2023_O39
0206P         2027 09 12.9753  1.567131  0.551149  189.5759  202.3424   33.6182  20250520  19.0  4.0  206P/Barnard-Boattini                                    MPC 75725
0207P         2024 01 31.8645  0.938401  0.758521  273.0255  198.1401   10.1988  20250520  16.0  4.0  207P/NEAT                                                MPEC 2024-NE4
0208P         2024 08 24.1703  2.529075  0.374055  310.7528   36.3339    4.4115  20250520  12.5  4.0  208P/McMillan                                            MPC182889
0209P         2024 07 14.4930  0.964193  0.674028  152.4821   62.7651   21.2827  20250520  17.0  2.0  209P/LINEAR                                              MPEC 2024-TD8
0210P         2025 11 22.7190  0.524464  0.834072  345.9161   93.8249   10.2819  20250520  13.5  4.0  210P/Christensen                                         MPC105242
0211P         2022 10  5.1358  2.326407  0.344473    4.3487  117.1010   18.9245  20250520  12.5  4.0  211P/Hill                                                MPEC 2024-JU4
0212P         2024 04 25.1461  1.612863  0.586751   14.0581   97.9720   22.1490  20250520  17.0  2.0  212P/NEAT                                                MPEC 2024-GJ3
0213P         2023 11 13.1530  1.981724  0.409501    6.4187  310.9669   10.4164  20250520  10.5  4.0  213P/VanNess                                             MPEC 2025-GB9
0213P      b  2023 11 13.0215  1.982083  0.409374    6.4379  310.9633   10.4157  20250520  17.0  4.0  213P-B/Van Ness                                          MPEC 2025-GB9
0213P      c  2023 11 12.2339  1.981134  0.409422  311.9969    5.3359   10.3518  20250520  17.5  4.0  213P-C/Van Ness                                          MPC 76570
0214P         2022 09 26.3476  1.858015  0.486246  190.1207  348.2120   15.1924  20250520  13.0  4.0  214P/LINEAR                                              MPC 92986
0215P         2028 11 24.3580  3.620578  0.164943  262.2584   56.6778   10.5763  20250520  11.0  4.0  215P/NEAT                                                MPEC 2025-GB9
0216P         2024 01  6.9839  2.126988  0.449001  151.7679  359.7828    9.0616  20250520  13.0  4.0  216P/LINEAR                                              MPEC 2024-N80
0217P         2025 05 24.9441  1.226374  0.689068  247.0359  125.3715   12.8655  20250520  12.0  4.0  217P/LINEAR                                              MPEC 2025-HB5
0218P         2026 03  3.8545  1.130100  0.630938   61.3848  174.6929    2.7261  20250520  16.0  4.0  218P/LINEAR                                              MPEC 2022-K19
0219P         2024 02 14.9614  2.355880  0.355615  107.9258  230.9150   11.5213  20250520  11.0  4.0  219P/LINEAR                                              MPC182889
0220P         2026 06 14.1440  1.558860  0.500400  180.5850  150.0919    8.1209  20250520  15.0  4.0  220P/McNaught                                            MPEC 2024-A43
0221P         2028 04  3.6916  1.625056  0.520487   41.1438  227.3144   10.9691  20250520  14.5  4.0  221P/LINEAR                                              MPEC 2022-UY9
0222P         2024 05 12.8889  0.826061  0.714795  346.2756    6.7562    5.0972  20250520  20.0  4.0  222P/LINEAR                                              MPC 92277
0223P         2027 07 24.7493  2.427332  0.416264   37.9809  346.7069   27.0060  20250520  12.0  4.0  223P/Skiff                                               MPEC 2023-A50
0224P         2022 09 30.1550  2.049016  0.405585   16.8121   40.0413   13.3018  20250520  15.5  4.0  224P/LINEAR-NEAT                                         MPEC 2024-L77
0225P         2023 08  7.8713  1.319731  0.638177    3.9064   14.2103   21.3617  20250520  18.0  4.0  225P/LINEAR                                              MPEC 2024-F91
0226P         2023 12 27.0716  1.773932  0.528875  341.0317   54.0130   44.0449  20250520  12.5  4.0  226P/Pigott-LINEAR-Kowalski                              MPEC 2024-MB8
0227P         2024 03  8.3176  1.623616  0.527691  105.5920   36.8032    7.5073  20250520  16.5  2.0  227P/Catalina-LINEAR                                     MPEC 2024-R10
0228P         2028 09  5.1342  3.424005  0.177377  114.7943   30.9557    7.9155  20250520  14.1  4.0  228P/LINEAR                                              MPEC 2022-HC2
0229P         2025 03  5.7904  2.440381  0.377981  224.2197  157.8816   26.0966  20250520  13.0  4.0  229P/Gibbs                                               MPC182889
0230P         2022 03 19.6919  1.570438  0.545466  313.5789  106.9273   15.4720  20250520  13.0  4.0  230P/LINEAR                                              MPEC 2025-GB9
0231P         2027 08  4.7969  3.086203  0.240045   43.7462  132.7859   12.2722  20250520  14.5  2.0  231P/LINEAR-NEAT                                         MPEC 2023-SQ0
0232P         2028 09 20.5774  2.967737  0.336097   53.2949   56.0119   14.6429  20250520  11.5  4.0  232P/Hill                                                MPC112394
0233P         2026 01  8.1433  1.776705  0.412962   27.0263   74.8975   11.2889  20250520  15.0  4.0  233P/La Sagra                                            MPEC 2021-N06
0234P         2024 10 23.6773  2.820906  0.257267  357.4438  179.5652   11.5338  20250520  12.0  4.0  234P/LINEAR                                              MPEC 2025-J72
0235P         2025 12 22.5858  1.978116  0.426165  352.1517  200.1815    9.8125  20250520  12.0  4.0  235P/LINEAR                                              MPEC 2025-J08
